GSAT-17                 
1 42815U 17040B   26157.87108438 -.00000244  00000+0  00000+0 0  9991
2 42815   0.1000  88.4675 0001592 215.9236 357.9916  1.00271467 32683
INTELSAT 35E (IS-35E)   
1 42818U 17041A   26157.83973160 -.00000224  00000+0  00000+0 0  9991
2 42818   0.0152  50.5053 0001881  24.0420  88.5299  1.00273203 32713
COSMOS 2520             
1 42907U 17046A   26157.78859558  .00000150  00000+0  00000+0 0  9990
2 42907   0.0430  85.7510 0001119  68.5800  69.7817  1.00272092 32293
TDRS 13                 
1 42915U 17047A   26157.84432494 -.00000087  00000+0  00000+0 0  9993
2 42915   3.4488   2.4624 0014647 104.7829  80.5297  1.00272281 32246
QZS-3 (MICHIBIKI-3)     
1 42917U 17048A   26157.89012110 -.00000334  00000+0  00000+0 0  9995
2 42917   0.0579 187.9549 0002782 257.2639 257.5623  1.00270718 32159
AMAZONAS 5              
1 42934U 17053A   26157.83444491 -.00000269  00000+0  00000+0 0  9992
2 42934   0.0341 318.4143 0002675  69.5250 106.7272  1.00272338 31941
ASIASAT 9               
1 42942U 17057A   26157.44297469 -.00000346  00000+0  00000+0 0  9999
2 42942   0.0062 349.0884 0002451  80.0446 107.2950  1.00270371 31752
INTELSAT 37E (IS-37E)   
1 42950U 17059A   26157.84293829 -.00000127  00000+0  00000+0 0  9997
2 42950   0.0137  47.9219 0002548  44.5162  88.2899  1.00271615 31962
BSAT-4A                 
1 42951U 17059B   26157.89227722 -.00000336  00000+0  00000+0 0  9994
2 42951   0.0350 359.2868 0004400  68.5179 258.5453  1.00269385 31691
QZS-4 (MICHIBIKI-4)     
1 42965U 17062A   26157.37281824 -.00000313  00000+0  00000+0 0  9994
2 42965  40.1149 343.6213 0744893 271.5546 271.6824  1.00254650 31696
SES-11 (ECHOSTAR 105)   
1 42967U 17063A   26157.82577821 -.00000076  00000+0  00000+0 0  9998
2 42967   0.0157 334.4551 0002812 112.3715   0.7463  1.00271190 31624
KOREASAT 5A             
1 42984U 17067A   26157.87707361 -.00000344  00000+0  00000+0 0  9998
2 42984   0.0160 304.4861 0000732 129.1774 250.5313  1.00273247 31420
ALCOMSAT 1              
1 43039U 17078A   26157.84163828 -.00000172  00000+0  00000+0 0  9992
2 43039   0.0283  61.8316 0002483   9.8272 101.7826  1.00273424 31196
SBIRS GEO-3 (USA 282)   
1 43162U 18009A   26157.81494483  .00000141  00000+0  00000+0 0  9990
2 43162   2.1767  11.5902 0002218  61.6047 316.0205  1.00272224 30747
AL YAH 3                
1 43174U 18012A   26157.84259161 -.00000141  00000+0  00000+0 0  9993
2 43174   1.5243  83.2347 0004217 352.9239 102.3393  1.00271928 30745
SES-14                  
1 43175U 18012B   26157.83713160 -.00000265  00000+0  00000+0 0  9994
2 43175   0.0187  23.0080 0001167  57.2241  68.8904  1.00271521  6928
GOES 17                 
1 43226U 18022A   26157.82881154 -.00000169  00000+0  00000+0 0  9993
2 43226   0.9101  85.8843 0000696   6.5894  11.6518  1.00272451 30321
HISPASAT 30W-6          
1 43228U 18023A   26157.76920367 -.00000202  00000+0  00000+0 0  9997
2 43228   0.0420  36.6549 0006085  30.7593  74.6931  1.00271522 30302
SUPERBIRD-B3            
1 43271U 18033A   26157.80731810 -.00000078  00000+0  00000+0 0  9995
2 43271   0.0242 288.4669 0001372 165.7987 253.6031  1.00271188 29959
HYLAS 4                 
1 43272U 18033B   26157.76859698 -.00000220  00000+0  00000+0 0  9995
2 43272   0.0230  66.6425 0001337  11.6792  60.0997  1.00269715 29962
IRNSS-1I                
1 43286U 18035A   26157.85727014  .00000092  00000+0  00000+0 0  9994
2 43286  28.7297  74.3596 0016456 194.0119 350.4605  1.00269780 29974
USA 283                 
1 43339U 18036A   26155.44904296  .00000000  00000+0  00000+0 0  9995
2 43339   0.0148 344.8211 0000547 104.8728  98.9470  1.00268935 25161
COSMOS 2526             
1 43432U 18037A   26157.23020069 -.00000331  00000+0  00000+0 0  9994
2 43432   0.0119  12.3339 0000874 250.6118 202.6342  1.00273242 29856
APSTAR-6C               
1 43450U 18041A   26157.88798848 -.00000304  00000+0  00000+0 0  9997
2 43450   0.0287 322.6679 0001295  36.6647 349.6405  1.00274310 29706
BANGABANDHUSAT-1        
1 43463U 18044A   26157.86849772 -.00000349  00000+0  00000+0 0  9994
2 43463   0.0365  93.9790 0002033 352.5555 240.5074  1.00273099 29601
SES-12                  
1 43488U 18049A   26157.87108438 -.00000255  00000+0  00000+0 0  9990
2 43488   0.0296  47.6041 0000783 247.2651   9.0063  1.00269448 29310
FENGYUN 2H              
1 43491U 18050A   26157.86228535 -.00000117  00000+0  00000+0 0  9993
2 43491   3.0042  79.1922 0001464 126.0379  79.9229  1.00271643 29334
BEIDOU-2 IGSO-7         
1 43539U 18057A   26157.44072134  .00000010  00000+0  00000+0 0  9990
2 43539  55.1931 163.1513 0104714 237.9372 123.1911  1.00254878 29026
TELSTAR 19V             
1 43562U 18059A   26157.76279029 -.00000266  00000+0  00000+0 0  9999
2 43562   0.0218 158.1227 0002642 301.5120   7.1383  1.00270316 29042
TELKOM 4 (MERAH PUTIH)  
1 43587U 18064A   26157.87152752 -.00000330  00000+0  00000+0 0  9999
2 43587   0.0188 304.1453 0001497 155.1440 217.7514  1.00272611 28778
TELSTAR 18V             
1 43611U 18069A   26157.87385072 -.00000280  00000+0  00000+0 0  9999
2 43611   0.0201 286.2627 0001955 141.8698 279.7567  1.00270500 28536
AZERSPACE 2 (IS-38)     
1 43632U 18074A   26156.94604939  .00000149  00000+0  00000+0 0  9994
2 43632   0.0175 331.2890 0001508 106.1415 202.6298  1.00271693 28335
