OBJECT_NAME,OBJECT_ID,EPOCH,MEAN_MOTION,ECCENTRICITY,INCLINATION,RA_OF_ASC_NODE,ARG_OF_PERICENTER,MEAN_ANOMALY,EPHEMERIS_TYPE,CLASSIFICATION_TYPE,NORAD_CAT_ID,ELEMENT_SET_NO,REV_AT_EPOCH,BSTAR,MEAN_MOTION_DOT,MEAN_MOTION_DDOT
GSAT-17,2017-040B,2026-06-06T20:54:21.690432,1.00271467,.0001592,0.1000,88.4675,215.9236,357.9916,0,U,42815,999,3268,0,-.244E-5,0
INTELSAT 35E (IS-35E),2017-041A,2026-06-06T20:09:12.810240,1.00273203,.0001881,0.0152,50.5053,24.0420,88.5299,0,U,42818,999,3271,0,-.224E-5,0
COSMOS 2520,2017-046A,2026-06-06T18:55:34.658112,1.00272092,.0001119,0.0430,85.7510,68.5800,69.7817,0,U,42907,999,3229,0,.15E-5,0
TDRS 13,2017-047A,2026-06-06T20:15:49.674816,1.00272281,.0014647,3.4488,2.4624,104.7829,80.5297,0,U,42915,999,3224,0,-.87E-6,0
QZS-3 (MICHIBIKI-3),2017-048A,2026-06-06T21:21:46.463040,1.00270718,.0002782,0.0579,187.9549,257.2639,257.5623,0,U,42917,999,3215,0,-.334E-5,0
AMAZONAS 5,2017-053A,2026-06-06T20:01:36.040224,1.00272338,.0002675,0.0341,318.4143,69.5250,106.7272,0,U,42934,999,3194,0,-.269E-5,0
ASIASAT 9,2017-057A,2026-06-06T10:37:53.013216,1.00270371,.00024518,0.0062,349.0884,80.0446,107.2950,0,U,42942,999,3175,0,-.346E-5,0
INTELSAT 37E (IS-37E),2017-059A,2026-06-06T20:13:49.868256,1.00271615,.0002548,0.0137,47.9219,44.5162,88.2899,0,U,42950,999,3196,0,-.127E-5,0
BSAT-4A,2017-059B,2026-06-06T21:24:52.751808,1.00269385,.00044,0.0350,359.2868,68.5179,258.5453,0,U,42951,999,3169,0,-.336E-5,0
QZS-4 (MICHIBIKI-4),2017-062A,2026-06-06T08:56:51.495936,1.00254650,.07448937,40.1149,343.6213,271.5546,271.6824,0,U,42965,999,3169,0,-.313E-5,0
SES-11 (ECHOSTAR 105),2017-063A,2026-06-06T19:49:07.237344,1.00271190,.0002812,0.0157,334.4551,112.3715,0.7463,0,U,42967,999,3162,0,-.76E-6,0
KOREASAT 5A,2017-067A,2026-06-06T21:02:59.159904,1.00273247,.0000732,0.0160,304.4861,129.1774,250.5313,0,U,42984,999,3142,0,-.344E-5,0
ALCOMSAT 1,2017-078A,2026-06-06T20:11:57.547392,1.00273424,.0002483,0.0283,61.8316,9.8272,101.7826,0,U,43039,999,3119,0,-.172E-5,0
SBIRS GEO-3 (USA 282),2018-009A,2026-06-06T19:33:31.233312,1.00272224,.0002218,2.1767,11.5902,61.6047,316.0205,0,U,43162,999,3074,0,.141E-5,0
AL YAH 3,2018-012A,2026-06-06T20:13:19.915104,1.00271928,.0004217,1.5243,83.2347,352.9239,102.3393,0,U,43174,999,3074,0,-.141E-5,0
SES-14,2018-012B,2026-06-06T20:05:28.170240,1.00271521,.0001167,0.0187,23.0080,57.2241,68.8904,0,U,43175,999,692,0,-.265E-5,0
GOES 17,2018-022A,2026-06-06T19:53:29.317056,1.00272451,.0000696,0.9101,85.8843,6.5894,11.6518,0,U,43226,999,3032,0,-.169E-5,0
HISPASAT 30W-6,2018-023A,2026-06-06T18:27:39.197088,1.00271522,.0006085,0.0420,36.6549,30.7593,74.6931,0,U,43228,999,3030,0,-.202E-5,0
SUPERBIRD-B3,2018-033A,2026-06-06T19:22:32.283840,1.00271188,.0001372,0.0242,288.4669,165.7987,253.6031,0,U,43271,999,2995,0,-.78E-6,0
HYLAS 4,2018-033B,2026-06-06T18:26:46.779072,1.00269715,.0001337,0.0230,66.6425,11.6792,60.0997,0,U,43272,999,2996,0,-.22E-5,0
IRNSS-1I,2018-035A,2026-06-06T20:34:28.140096,1.00269780,.0016456,28.7297,74.3596,194.0119,350.4605,0,U,43286,999,2997,0,.92E-6,0
USA 283,2018-036A,2026-06-04T10:46:37.311744,1.00268935,.0000547,0.0148,344.8211,104.8728,98.9470,0,U,43339,999,2516,0,0,0
COSMOS 2526,2018-037A,2026-06-06T05:31:29.339616,1.00273242,.0000874,0.0119,12.3339,250.6118,202.6342,0,U,43432,999,2985,0,-.331E-5,0
APSTAR-6C,2018-041A,2026-06-06T21:18:42.204672,1.00274310,.0001295,0.0287,322.6679,36.6647,349.6405,0,U,43450,999,2970,0,-.304E-5,0
BANGABANDHUSAT-1,2018-044A,2026-06-06T20:50:38.203008,1.00273099,.0002033,0.0365,93.9790,352.5555,240.5074,0,U,43463,999,2960,0,-.349E-5,0
SES-12,2018-049A,2026-06-06T20:54:21.690432,1.00269448,.0000783,0.0296,47.6041,247.2651,9.0063,0,U,43488,999,2931,0,-.255E-5,0
FENGYUN 2H,2018-050A,2026-06-06T20:41:41.454240,1.00271643,.0001464,3.0042,79.1922,126.0379,79.9229,0,U,43491,999,2933,0,-.117E-5,0
BEIDOU-2 IGSO-7,2018-057A,2026-06-06T10:34:38.323776,1.00254878,.01047141,55.1931,163.1513,237.9372,123.1911,0,U,43539,999,2902,0,.1E-6,0
TELSTAR 19V,2018-059A,2026-06-06T18:18:25.081056,1.00270316,.0002642,0.0218,158.1227,301.5120,7.1383,0,U,43562,999,2904,0,-.266E-5,0
TELKOM 4 (MERAH PUTIH),2018-064A,2026-06-06T20:54:59.977728,1.00272611,.0001497,0.0188,304.1453,155.1440,217.7514,0,U,43587,999,2877,0,-.33E-5,0
TELSTAR 18V,2018-069A,2026-06-06T20:58:20.702208,1.00270500,.0001955,0.0201,286.2627,141.8698,279.7567,0,U,43611,999,2853,0,-.28E-5,0
AZERSPACE 2 (IS-38),2018-074A,2026-06-05T22:42:18.667296,1.00271693,.00015089,0.0175,331.2890,106.1415,202.6298,0,U,43632,999,2833,0,.149E-5,0
